0 REX
1 21527U 91045A   13281.39945841  .00000071  00000-0  25525-4 0  3191
2 21527 089.5763 135.9590 0068809 004.8445 114.6459 14.22642549156231
0 REX
1 21527U 91045A   13282.79511291  .00000095  00000-0  35974-4 0  3201
2 21527 089.5760 135.8919 0068622 000.2398 062.5569 14.22643016156437
0 REX
1 21527U 91045A   13284.14123736  .00000113  00000-0  44035-4 0  3215
2 21527 089.5757 135.8272 0068449 355.7905 116.8062 14.22643171156628
0 REX
1 21527U 91045A   13285.40362771  .00000102  00000-0  39074-4 0  3225
2 21527 089.5754 135.7665 0068286 351.6183 102.2079 14.22643261156809
0 REX
1 21527U 91045A   13286.80342259  .00000113  00000-0  43959-4 0  3239
2 21527 089.5751 135.6991 0068113 346.9748 071.3523 14.22643573157009
0 REX
1 21527U 91045A   13288.02020933  .00000125  00000-0  49243-4 0  3243
2 21527 089.5748 135.6405 0067975 342.9222 183.2237 14.22644097157178
0 REX
1 21527U 91045A   13289.13529245  .00000097  00000-0  37083-4 0  3254
2 21527 089.5747 135.5867 0067858 339.2094 134.2131 14.22644489157336
0 REX
1 21527U 91045A   13290.39817829  .00000094  00000-0  35902-4 0  3268
2 21527 089.5746 135.5258 0067721 334.9867 122.2068 14.22644674157510
0 REX
1 21527U 91045A   13291.50748670  .00000090  00000-0  34060-4 0  3270
2 21527 089.5745 135.4723 0067611 331.3030 043.6134 14.22644836157673
0 REX
1 21527U 91045A   13292.71416444  .00000096  00000-0  36842-4 0  3282
2 21527 089.5745 135.4140 0067489 327.2616 103.7406 14.22645080157844
0 REX
1 21527U 91045A   13293.83723502  .00000109  00000-0  42218-4 0  3292
2 21527 089.5746 135.3597 0067401 323.4872 095.6786 14.22645214158004
0 REX
1 21527U 91045A   13295.11377108  .00000116  00000-0  45251-4 0  3302
2 21527 089.5745 135.2981 0067310 319.1888 153.6163 14.22645491158187
